[{"OBJECT_NAME":"STARLINK-31042","OBJECT_ID":"2024-005M","EPOCH":"2026-03-09T17:50:25.214496","MEAN_MOTION":15.2674208,"ECCENTRICITY":7.233e-5,"INCLINATION":43.0003,"RA_OF_ASC_NODE":219.2871,"ARG_OF_PERICENTER":275.9861,"MEAN_ANOMALY":84.0908,"EPHEMERIS_TYPE":0,"CLASSIFICATION_TYPE":"U","NORAD_CAT_ID":58739,"ELEMENT_SET_NO":999,"REV_AT_EPOCH":12045,"BSTAR":8.5254954e-5,"MEAN_MOTION_DOT":2.028e-5,"MEAN_MOTION_DDOT":0},{"OBJECT_NAME":"CZ-4B DEB","OBJECT_ID":"2006-015E","EPOCH":"2026-03-09T20:34:53.082912","MEAN_MOTION":15.19885806,"ECCENTRICITY":0.00461993,"INCLINATION":98.0565,"RA_OF_ASC_NODE":201.7753,"ARG_OF_PERICENTER":62.4887,"MEAN_ANOMALY":298.1031,"EPHEMERIS_TYPE":0,"CLASSIFICATION_TYPE":"U","NORAD_CAT_ID":29538,"ELEMENT_SET_NO":999,"REV_AT_EPOCH":5389,"BSTAR":0.0022587151,"MEAN_MOTION_DOT":0.00050103,"MEAN_MOTION_DDOT":0}]
